start=new Date('2023-01-24T00:00:00.000Z').valueOf();
sats=[{"TLE_LINE2":"2 52495  53.2137 131.4979 0001424  85.6131 274.5024 15.08839201 40293","APOAPSIS":"540.733","OBJECT_TYPE":"PAYLOAD","REV_AT_EPOCH":"4029","COUNTRY_CODE":"US","OBJECT_NAME":"STARLINK-3905","MEAN_MOTION_DDOT":"0.0000000000000","FILE":"3759172","NORAD_CAT_ID":"52495","CLASSIFICATION_TYPE":"U","BSTAR":"0.00004969000000","PERIOD":"95.438","GP_ID":"223621395","TIME_SYSTEM":"UTC","REF_FRAME":"TEME","CENTER_NAME":"EARTH","LAUNCH_DATE":"2022-05-06","PERIAPSIS":"538.763","ECCENTRICITY":"0.00014240","SITE":"AFETR","DECAY_DATE":null,"RCS_SIZE":"LARGE","EPOCH":"2023-01-23T15:21:54.206208","ARG_OF_PERICENTER":"85.6131","MEAN_ELEMENT_THEORY":"SGP4","TLE_LINE1":"1 52495U 22049AW  23023.64021072  .00000503  00000-0  49690-4 0  9994","SEMIMAJOR_AXIS":"6917.883","EPHEMERIS_TYPE":"0","ELEMENT_SET_NO":"999","MEAN_MOTION_DOT":"0.00000503","MEAN_ANOMALY":"274.5024","INCLINATION":"53.2137","MEAN_MOTION":"15.08839201","RA_OF_ASC_NODE":"131.4979","OBJECT_ID":"2022-049AW"},{"TIME_SYSTEM":"UTC","REF_FRAME":"TEME","GP_ID":"223608287","PERIOD":"95.438","BSTAR":"0.00010293000000","CLASSIFICATION_TYPE":"U","NORAD_CAT_ID":"52496","FILE":"3758578","MEAN_MOTION_DDOT":"0.0000000000000","OBJECT_NAME":"STARLINK-3871","REV_AT_EPOCH":"4014","COUNTRY_CODE":"US","OBJECT_TYPE":"PAYLOAD","APOAPSIS":"541.385","TLE_LINE2":"2 52496  53.2172 128.1726 0002365  93.9965 266.1297 15.08838827 40144","RA_OF_ASC_NODE":"128.1726","OBJECT_ID":"2022-049AX","MEAN_MOTION":"15.08838827","INCLINATION":"53.2172","MEAN_ANOMALY":"266.1297","MEAN_MOTION_DOT":"0.00001350","SEMIMAJOR_AXIS":"6917.884","ELEMENT_SET_NO":"999","EPHEMERIS_TYPE":"0","TLE_LINE1":"1 52496U 22049AX  23023.26347279  .00001350  00000-0  10293-3 0  9990","MEAN_ELEMENT_THEORY":"SGP4","ARG_OF_PERICENTER":"93.9965","EPOCH":"2023-01-23T06:19:24.049056","RCS_SIZE":"LARGE","DECAY_DATE":null,"SITE":"AFETR","ECCENTRICITY":"0.00023650","PERIAPSIS":"538.113","LAUNCH_DATE":"2022-05-06","CENTER_NAME":"EARTH"},{"MEAN_MOTION_DDOT":"0.0000000000000","FILE":"3758667","NORAD_CAT_ID":"52497","CLASSIFICATION_TYPE":"U","BSTAR":"0.00020831000000","PERIOD":"95.438","GP_ID":"223609802","TIME_SYSTEM":"UTC","REF_FRAME":"TEME","TLE_LINE2":"2 52497  53.2161 133.0261 0002609  79.0589 281.0697 15.08840023 40242","APOAPSIS":"541.550","OBJECT_TYPE":"PAYLOAD","COUNTRY_CODE":"US","REV_AT_EPOCH":"4024","OBJECT_NAME":"STARLINK-3884","MEAN_ELEMENT_THEORY":"SGP4","TLE_LINE1":"1 52497U 22049AY  23023.30165359  .00003028  00000-0  20831-3 0  9996","SEMIMAJOR_AXIS":"6917.880","ELEMENT_SET_NO":"999","EPHEMERIS_TYPE":"0","MEAN_MOTION_DOT":"0.00003028","MEAN_ANOMALY":"281.0697","INCLINATION":"53.2161","MEAN_MOTION":"15.08840023","RA_OF_ASC_NODE":"133.0261","OBJECT_ID":"2022-049AY","CENTER_NAME":"EARTH","LAUNCH_DATE":"2022-05-06","PERIAPSIS":"537.940","ECCENTRICITY":"0.00026090","RCS_SIZE":"LARGE","DECAY_DATE":null,"SITE":"AFETR","EPOCH":"2023-01-23T07:14:22.870176","ARG_OF_PERICENTER":"79.0589"},{"EPOCH":"2023-01-23T19:21:20.533824","ARG_OF_PERICENTER":"123.2737","RCS_SIZE":"LARGE","DECAY_DATE":null,"SITE":"AFETR","PERIAPSIS":"536.668","LAUNCH_DATE":"2022-05-06","CENTER_NAME":"EARTH","ECCENTRICITY":"0.00013050","MEAN_MOTION":"15.09551878","INCLINATION":"53.2192","RA_OF_ASC_NODE":"120.7372","OBJECT_ID":"2022-049AZ","MEAN_ANOMALY":"236.8381","TLE_LINE1":"1 52498U 22049AZ  23023.80648766  .00301056  00000-0  17795-1 0  9995","MEAN_MOTION_DOT":"0.00301056","ELEMENT_SET_NO":"999","SEMIMAJOR_AXIS":"6915.705","EPHEMERIS_TYPE":"0","MEAN_ELEMENT_THEORY":"SGP4","OBJECT_NAME":"STARLINK-3925","REV_AT_EPOCH":"4045","COUNTRY_CODE":"US","TLE_LINE2":"2 52498  53.2192 120.7372 0001305 123.2737 236.8381 15.09551878 40451","OBJECT_TYPE":"PAYLOAD","APOAPSIS":"538.473","TIME_SYSTEM":"UTC","REF_FRAME":"TEME","PERIOD":"95.393","GP_ID":"223621385","FILE":"3759172","NORAD_CAT_ID":"52498","BSTAR":"0.01779500000000","CLASSIFICATION_TYPE":"U","MEAN_MOTION_DDOT":"0.0000000000000"},{"MEAN_MOTION_DOT":"0.00019970","SEMIMAJOR_AXIS":"6917.857","ELEMENT_SET_NO":"999","EPHEMERIS_TYPE":"0","TLE_LINE1":"1 52499U 22049BA  23023.29797582  .00019970  00000-0  12690-2 0  9991","MEAN_ELEMENT_THEORY":"SGP4","RA_OF_ASC_NODE":"133.0410","OBJECT_ID":"2022-049BA","MEAN_MOTION":"15.08847537","INCLINATION":"53.2148","MEAN_ANOMALY":"273.9611","ECCENTRICITY":"0.00026030","PERIAPSIS":"537.922","LAUNCH_DATE":"2022-05-06","CENTER_NAME":"EARTH","ARG_OF_PERICENTER":"86.1679","EPOCH":"2023-01-23T07:09:05.110848","SITE":"AFETR","DECAY_DATE":null,"RCS_SIZE":"LARGE","BSTAR":"0.00126900000000","CLASSIFICATION_TYPE":"U","NORAD_CAT_ID":"52499","FILE":"3758578","MEAN_MOTION_DDOT":"0.0000000000000","TIME_SYSTEM":"UTC","REF_FRAME":"TEME","GP_ID":"223608290","PERIOD":"95.437","REV_AT_EPOCH":"4024","COUNTRY_CODE":"US","OBJECT_TYPE":"PAYLOAD","APOAPSIS":"541.523","TLE_LINE2":"2 52499  53.2148 133.0410 0002603  86.1679 273.9611 15.08847537 40241","OBJECT_NAME":"STARLINK-3894"},{"MEAN_MOTION_DDOT":"0.0000000000000","BSTAR":"0.00006640200000","CLASSIFICATION_TYPE":"U","FILE":"3758578","NORAD_CAT_ID":"52500","GP_ID":"223608284","PERIOD":"95.438","REF_FRAME":"TEME","TIME_SYSTEM":"UTC","OBJECT_TYPE":"PAYLOAD","APOAPSIS":"540.882","TLE_LINE2":"2 52500  53.2167 123.1411 0001615  87.1514 272.9663 15.08833735 40372","REV_AT_EPOCH":"4037","COUNTRY_CODE":"US","OBJECT_NAME":"STARLINK-3866","MEAN_ELEMENT_THEORY":"SGP4","MEAN_MOTION_DOT":"0.00000769","ELEMENT_SET_NO":"999","SEMIMAJOR_AXIS":"6917.900","EPHEMERIS_TYPE":"0","TLE_LINE1":"1 52500U 22049BB  23023.27313124  .00000769  00000-0  66402-4 0  9996","MEAN_ANOMALY":"272.9663","RA_OF_ASC_NODE":"123.1411","OBJECT_ID":"2022-049BB","MEAN_MOTION":"15.08833735","INCLINATION":"53.2167","ECCENTRICITY":"0.00016150","LAUNCH_DATE":"2022-05-06","PERIAPSIS":"538.647","CENTER_NAME":"EARTH","DECAY_DATE":null,"SITE":"AFETR","RCS_SIZE":"LARGE","ARG_OF_PERICENTER":"87.1514","EPOCH":"2023-01-23T06:33:18.539136"},{"REV_AT_EPOCH":"4028","COUNTRY_CODE":"US","APOAPSIS":"541.248","OBJECT_TYPE":"PAYLOAD","TLE_LINE2":"2 52501  53.2142 131.8647 0002208  89.8015 270.3231 15.08848126 40280","OBJECT_NAME":"STARLINK-3907","CLASSIFICATION_TYPE":"U","BSTAR":"0.00032322000000","NORAD_CAT_ID":"52501","FILE":"3759172","MEAN_MOTION_DDOT":"0.0000000000000","TIME_SYSTEM":"UTC","REF_FRAME":"TEME","GP_ID":"223621117","PERIOD":"95.437","ECCENTRICITY":"0.00022080","CENTER_NAME":"EARTH","LAUNCH_DATE":"2022-05-06","PERIAPSIS":"538.193","ARG_OF_PERICENTER":"89.8015","EPOCH":"2023-01-23T13:26:41.972064","RCS_SIZE":"LARGE","DECAY_DATE":null,"SITE":"AFETR","SEMIMAJOR_AXIS":"6917.856","EPHEMERIS_TYPE":"0","ELEMENT_SET_NO":"999","MEAN_MOTION_DOT":"0.00004861","TLE_LINE1":"1 52501U 22049BC  23023.56020801  .00004861  00000-0  32322-3 0  9996","MEAN_ELEMENT_THEORY":"SGP4","OBJECT_ID":"2022-049BC","RA_OF_ASC_NODE":"131.8647","INCLINATION":"53.2142","MEAN_MOTION":"15.08848126","MEAN_ANOMALY":"270.3231"},{"BSTAR":"0.00092636000000","CLASSIFICATION_TYPE":"U","FILE":"3759173","NORAD_CAT_ID":"52502","MEAN_MOTION_DDOT":"0.0000000000000","REF_FRAME":"TEME","TIME_SYSTEM":"UTC","GP_ID":"223621399","PERIOD":"95.436","COUNTRY_CODE":"US","REV_AT_EPOCH":"4041","OBJECT_TYPE":"PAYLOAD","APOAPSIS":"540.932","TLE_LINE2":"2 52502  53.2167 121.9736 0001851  98.6618 261.4584 15.08870605 40411","OBJECT_NAME":"STARLINK-3912","MEAN_MOTION_DOT":"0.00014498","SEMIMAJOR_AXIS":"6917.787","ELEMENT_SET_NO":"999","EPHEMERIS_TYPE":"0","TLE_LINE1":"1 52502U 22049BD  23023.53169457  .00014498  00000-0  92636-3 0  9996","MEAN_ELEMENT_THEORY":"SGP4","RA_OF_ASC_NODE":"121.9736","OBJECT_ID":"2022-049BD","MEAN_MOTION":"15.08870605","INCLINATION":"53.2167","MEAN_ANOMALY":"261.4584","ECCENTRICITY":"0.00018510","PERIAPSIS":"538.371","LAUNCH_DATE":"2022-05-06","CENTER_NAME":"EARTH","ARG_OF_PERICENTER":"98.6618","EPOCH":"2023-01-23T12:45:38.410848","DECAY_DATE":null,"SITE":"AFETR","RCS_SIZE":"LARGE"},{"CENTER_NAME":"EARTH","LAUNCH_DATE":"2022-05-06","PERIAPSIS":"538.883","ECCENTRICITY":"0.00012890","DECAY_DATE":null,"SITE":"AFETR","RCS_SIZE":"LARGE","EPOCH":"2023-01-23T06:28:01.041600","ARG_OF_PERICENTER":"82.1555","MEAN_ELEMENT_THEORY":"SGP4","TLE_LINE1":"1 52503U 22049BE  23023.26945650  .00001180  00000-0  92217-4 0  9994","SEMIMAJOR_AXIS":"6917.910","EPHEMERIS_TYPE":"0","ELEMENT_SET_NO":"999","MEAN_MOTION_DOT":"0.00001180","MEAN_ANOMALY":"277.9583","INCLINATION":"53.2172","MEAN_MOTION":"15.08830453","OBJECT_ID":"2022-049BE","RA_OF_ASC_NODE":"123.1573","TLE_LINE2":"2 52503  53.2172 123.1573 0001289  82.1555 277.9583 15.08830453 40377","APOAPSIS":"540.666","OBJECT_TYPE":"PAYLOAD","REV_AT_EPOCH":"4037","COUNTRY_CODE":"US","OBJECT_NAME":"STARLINK-3861","MEAN_MOTION_DDOT":"0.0000000000000","NORAD_CAT_ID":"52503","FILE":"3758580","CLASSIFICATION_TYPE":"U","BSTAR":"0.00009221700000","PERIOD":"95.438","GP_ID":"223608030","REF_FRAME":"TEME","TIME_SYSTEM":"UTC"},{"CENTER_NAME":"EARTH","PERIAPSIS":"538.814","LAUNCH_DATE":"2022-05-13","ECCENTRICITY":"0.00013280","EPOCH":"2023-01-23T18:55:16.197888","ARG_OF_PERICENTER":"80.9951","DECAY_DATE":null,"SITE":"AFWTR","RCS_SIZE":"LARGE","TLE_LINE1":"1 52533U 22051A   23023.78838192  .00003845  00000-0  25953-3 0  9991","ELEMENT_SET_NO":"999","SEMIMAJOR_AXIS":"6917.867","EPHEMERIS_TYPE":"0","MEAN_MOTION_DOT":"0.00003845","MEAN_ELEMENT_THEORY":"SGP4","INCLINATION":"53.2136","MEAN_MOTION":"15.08844274","RA_OF_ASC_NODE":"210.8279","OBJECT_ID":"2022-051A","MEAN_ANOMALY":"279.1191","COUNTRY_CODE":"US","REV_AT_EPOCH":"3927","TLE_LINE2":"2 52533  53.2136 210.8279 0001328  80.9951 279.1191 15.08844274 39279","APOAPSIS":"540.651","OBJECT_TYPE":"PAYLOAD","OBJECT_NAME":"STARLINK-3951","NORAD_CAT_ID":"52533","FILE":"3759194","CLASSIFICATION_TYPE":"U","BSTAR":"0.00025953000000","MEAN_MOTION_DDOT":"0.0000000000000","TIME_SYSTEM":"UTC","REF_FRAME":"TEME","PERIOD":"95.437","GP_ID":"223621675"}];
